BEIDOU 16               
1 38953U 12059A   20143.08378361 -.00000165  00000-0  00000+0 0  9993
2 38953   1.8684  83.8553 0002728 266.0658   4.4661  1.00272230 27817
LUCH 5B                 
1 38977U 12061A   20143.13551450 -.00000123  00000-0  00000+0 0  9994
2 38977   5.6961  67.8077 0003388 356.6180 208.2430  1.00272946 27941
YAMAL 300K              
1 38978U 12061B   20143.10349892  .00000082  00000-0  00000+0 0  9990
2 38978   0.0120 315.7868 0001655 295.1130 209.5060  1.00270564 27642
STAR ONE C3             
1 38991U 12062A   20142.98023458 -.00000238  00000-0  00000-0 0  9993
2 38991   0.0157 349.8880 0002733  92.7267  75.3484  1.00271973 27531
EUTELSAT 21B            
1 38992U 12062B   20143.04875809  .00000141  00000-0  00000-0 0  9999
2 38992   0.0681   4.1942 0002667  65.8337 209.2656  1.00268784 27613
ECHOSTAR 16             
1 39008U 12065A   20143.08243870 -.00000271  00000-0  00000+0 0  9996
2 39008   0.0176 326.9507 0002023  89.9824 151.4074  1.00268847 27574
CHINASAT 12 (ZX 12)     
1 39017U 12067A   20143.08448149 -.00000195  00000-0  00000-0 0  9990
2 39017   0.0188 329.6117 0003260  98.3191 290.1493  1.00270477 27274
EUTELSAT 70B            
1 39020U 12069A   20143.08313477 -.00000032  00000-0  00000-0 0  9991
2 39020   0.0649  14.9656 0003465 116.6879 208.9379  1.00270670 27271
YAMAL 402               
1 39022U 12070A   20142.94494108  .00000096  00000-0  00000-0 0  9999
2 39022   0.0129 344.5633 0002842  92.2198 198.3398  1.00273574 27161
SKYNET 5D               
1 39034U 12075A   20142.95031881  .00000110  00000-0  00000-0 0  9990
2 39034   0.0835 341.1089 0003211  88.5419 205.2600  1.00272339 26937
MEXSAT 3                
1 39035U 12075B   20143.17078642 -.00000013  00000-0  00000+0 0  9994
2 39035   0.0180 308.1950 0001861 129.4078 109.3415  1.00265986 27249
TDRS 11                 
1 39070U 13004A   20143.09434258  .00000090  00000-0  00000-0 0  9991
2 39070   3.8734 332.1484 0005506  55.2845  72.6357  1.00281168 26753
AMAZONAS 3              
1 39078U 13006A   20143.08243870 -.00000271  00000-0  00000-0 0  9990
2 39078   0.0269 224.8131 0001412 233.1268 110.8994  1.00268388 22664
AZERSPACE 1             
1 39079U 13006B   20142.99354890  .00000144  00000-0  00000-0 0  9993
2 39079   0.0159 354.5717 0001188  72.5988 216.6229  1.00269059 26574
SBIRS GEO-2 (USA 241)   
1 39120U 13011A   20142.99910310  .00000130  00000-0  00000-0 0  9996
2 39120   2.1609 342.2827 0002526  80.8294 197.2620  1.00272894 26322
EUTELSAT 117 WEST A     
1 39122U 13012A   20143.44653966 -.00000001  00000-0  00000+0 0  9998
2 39122   0.0148 334.4078 0002668  83.6408 226.4530  1.00271119 26239
ANIK G1                 
1 39127U 13014A   20143.56367319 -.00000062  00000-0  00000+0 0  9999
2 39127   0.0152 310.3385 0001197  50.8007 335.1361  1.00271596 26026
CHINASAT 11 (ZX 11)     
1 39157U 13020A   20142.87118965 -.00000281  00000-0  00000+0 0  9996
2 39157   0.0213 296.1742 0002070  52.5169 302.9218  1.00274697 25919
EUTELSAT 7B             
1 39163U 13022A   20143.05466226  .00000059  00000-0  00000-0 0  9995
2 39163   0.0589 335.7393 0004716  59.8372 231.2524  1.00272964 25749
WGS F5 (USA 243)        
1 39168U 13024A   20143.08243870 -.00000273  00000-0  00000-0 0  9992
2 39168   0.0192 308.1489 0000345  36.6954 232.5031  1.00269471 24955
SES-6                   
1 39172U 13026A   20143.07688494 -.00000250  00000-0  00000+0 0  9997
2 39172   0.0152 334.7403 0001898  82.2311 170.3814  1.00272488 25484
IRNSS-1A                
1 39199U 13034A   20142.94494108  .00000107  00000-0  00000-0 0  9998
2 39199  30.8074  97.1979 0017305 191.1271 346.8461  1.00270574 25134
MUOS-2                  
1 39206U 13036A   20143.10341170  .00000073  00000-0  00000+0 0  9999
2 39206   2.6381 355.9929 0053117 176.0604 288.3198  1.00271440 25077
ALPHASAT                
1 39215U 13038A   20143.33313064  .00000146  00000-0  00000+0 0  9998
2 39215   2.4402  20.5761 0001654  54.8289 309.8195  1.00273710 25044
INSAT-3D                
1 39216U 13038B   20143.08334743 -.00000145  00000-0  00000+0 0  9998
2 39216   0.0589 269.2078 0001691 166.5800 276.4854  1.00271541 25073
WGS F6 (USA 244)        
1 39222U 13041A   20143.03660514  .00000100  00000-0  00000-0 0  9993
2 39222   0.0157 312.3056 0000354 329.0894 196.7217  1.00271124 23826
EUTELSAT 25B            
1 39233U 13044A   20143.04355090  .00000154  00000-0  00000-0 0  9998
2 39233   0.0559  27.3827 0001584  27.2308 226.6866  1.00272974 24408
GSAT-7                  
1 39234U 13044B   20143.08313477 -.00000066  00000-0  00000-0 0  9999
2 39234   0.0564 106.8448 0005892 169.6256  67.6488  1.00272236 23094
AMOS-4                  
1 39237U 13045A   20142.98799439  .00000018  00000-0  00000-0 0  9993
2 39237   0.0161 304.2937 0003015 111.9143 244.5558  1.00272055 24721
AEHF-3 (USA 246)        
1 39256U 13050A   20143.06646650 -.00000344  00000-0  00000+0 0  9998
2 39256   0.6322 350.3511 0005075  40.2812 344.4897  1.00267468 24450
ASTRA 2E                
1 39285U 13056A   20142.92911431  .00000161  00000-0  00000-0 0  9999
2 39285   0.0699  40.5750 0002232  16.4735 185.9783  1.00271118 24232
SIRIUS FM-6             
1 39360U 13058A   20143.11562471 -.00000005  00000-0  00000-0 0  9991
2 39360   0.0184 308.9474 0000748 331.2365 245.4834  1.00272504 23931
RADUGA-1M 3             
1 39375U 13062A   20143.25743685  .00000167  00000-0  10000-3 0  9997
2 39375   0.3762  99.2432 0005293 322.8524 305.9364  1.00274902 23900
SES-8                   
1 39460U 13071A   20143.07202359 -.00000258  00000-0  00000+0 0  9997
2 39460   0.0216 250.2190 0002468 177.3734 293.4981  1.00273010 23649
INMARSAT 5-F1           
1 39476U 13073A   20142.98799439  .00000039  00000-0  00000-0 0  9992
2 39476   0.0198 320.6719 0000183 247.4469  90.2287  1.00269803 23355
TKSAT-1 (TUPAC KATARI)  
1 39481U 13075A   20143.06021580 -.00000184  00000-0  00000+0 0  9996
2 39481   0.0043 236.8053 0003134 169.3846 128.4544  1.00272589 23613
EXPRESS-AM5             
1 39487U 13077A   20143.12037381 -.00000269  00000-0  00000-0 0  9992
2 39487   0.0152 271.3854 0000788  75.7505  76.4539  1.00271312 24123
GSAT-14                 
1 39498U 14001A   20143.08313477 -.00000066  00000-0  00000-0 0  9995
2 39498   0.0141 122.0319 0002152 171.1541  50.9129  1.00271371 23181
THAICOM 6               
1 39500U 14002A   20143.08313477 -.00000111  00000-0  00000-0 0  9991
2 39500   0.0648 119.2564 0003385 339.2317 250.1404  1.00274615 23223
TDRS 12                 
1 39504U 14004A   20143.02063309 -.00000263  00000-0  00000-0 0  9995
2 39504   4.6887 338.2979 0002257 120.8012 107.5776  1.00273862 22047
ABS-2                   
1 39508U 14006A   20143.08313477 -.00000075  00000-0  00000-0 0  9992
2 39508   0.0642 102.4424 0003628 315.0393 287.5423  1.00271940 23054
ATHENA-FIDUS            
1 39509U 14006B   20143.21812693  .00000165  00000-0  00000+0 0  9990
2 39509   0.0148 311.9139 0001245 109.0283 295.6979  1.00274407 23279
TURKSAT 4A              
1 39522U 14007A   20142.99354890  .00000157  00000-0  00000-0 0  9992
2 39522   0.0251 275.8932 0001582  69.4135 294.4313  1.00272743 22759
EXPRESS-AT1             
1 39612U 14010A   20143.41090868  .00000090  00000-0  00000+0 0  9991
2 39612   0.0128 313.6993 0000006  94.3261  36.3878  1.00271078 22824
EXPRESS-AT2             
1 39613U 14010B   20143.23845291 -.00000270  00000-0  00000-0 0  9992
2 39613   0.0003  87.8142 0000161  94.4376 283.7717  1.00271657 22646
AMAZONAS 4A             
1 39616U 14011A   20143.43358684 -.00000241  00000-0  00000+0 0  9990
2 39616   0.0837  78.6092 0003278 335.9114 268.1263  1.00273376 22633
ASTRA 5B                
1 39617U 14011B   20143.32757624  .00000166  00000-0  00000+0 0  9991
2 39617   0.0510 306.9228 0003230 129.9103 313.0099  1.00272595 22647
IRNSS-1B                
1 39635U 14017A   20142.94494108  .00000080  00000-0  00000-0 0  9995
2 39635  28.6272 277.6385 0021832 179.5287 178.1110  1.00276974 22355
LUCH 5V                 
1 39727U 14023A   20143.27107620 -.00000258  00000-0  00000-0 0  9999
2 39727   0.5697 328.7025 0004224 114.3073 349.7024  1.00273300540290
KAZSAT-3                
1 39728U 14023B   20143.41090868  .00000072  00000-0  00000+0 0  9993
2 39728   0.0196 242.2056 0000344 175.2648  29.4435  1.00273949 22211
EUTELSAT 3B             
1 39773U 14030A   20143.02341267  .00000031  00000-0  00000-0 0  9996
2 39773   0.0640   3.6431 0004574 141.1766 106.8264  1.00270921 21837
USA 253                 
1 40099U 14043A   20142.69665091 -.00000131  00000-0  00000+0 0  9990
2 40099   0.2920 104.8914 0002744  33.6770  72.6601  1.00271936  5823
USA 254                 
1 40100U 14043B   20143.50291796  .00000141  00000-0  00000+0 0  9991
2 40100   0.5080  97.3471 0004021 352.4162 174.5421  1.00115477  5523
ASIASAT 8               
1 40107U 14046A   20143.06021664 -.00000022  00000-0  00000+0 0  9996
2 40107   0.0124 358.5266 0001786  63.1469 196.2765  1.00271593 21262
ASIASAT 6               
1 40141U 14052A   20143.37803041 -.00000350  00000-0  00000+0 0  9996
2 40141   0.0139 284.5613 0000477 172.1733  39.7284  1.00270417 20935
OPTUS 10                
1 40146U 14054A   20142.88279204 -.00000136  00000-0  00000+0 0  9998
2 40146   0.0736 350.9416 0002667  89.3475 273.5011  1.00270433 20885
MEASAT-3B               
1 40147U 14054B   20143.08526662 -.00000230  00000-0  00000-0 0  9991
2 40147   0.0316  17.2854 0002200  38.1776 306.8855  1.00268287 20675
LUCH (OLYMP)            
1 40258U 14058A   20142.98609031  .00000001  00000-0  00000-0 0  9993
2 40258   0.0141 292.9696 0001299 130.5653 170.4364  1.00278904 18762
HIMAWARI-8              
1 40267U 14060A   20142.95144672 -.00000264  00000-0  00000+0 0  9999
2 40267   0.0059 356.8305 0000754  53.5808 312.7957  1.00274531 20638
